NORAD_CAT_ID,OBJECT_NAME,OBJECT_TYPE,EPOCH,MEAN_MOTION,ECCENTRICITY,INCLINATION,RA_OF_ASC_NODE,ARG_OF_PERICENTER,MEAN_ANOMALY,BSTAR,MEAN_MOTION_DOT,MEAN_MOTION_DDOT,TLE_LINE0,TLE_LINE1,TLE_LINE2,SEMIMAJOR_AXIS,PERIOD,APOGEE,PERIGEE,DECAYED
53017.0,STARLINK-4281,PAYLOAD,2024-04-26 16:12:15,15.08840497,0.0001332,53.2174,265.8027,103.6594,256.4546,8.608e-05,1.082e-05,0.0,0 STARLINK-4281,1 53017U 22076AH  24117.67517679  .00001082  00000-0  86080-4 0  9993,2 53017  53.2174 265.8027 0001332 103.6594 256.4546 15.08840497100039,6917.879,95.438,540.665,538.822,0.0
53017.0,STARLINK-4281,PAYLOAD,2024-04-27 03:19:56,15.08856505,0.0001544,53.2188,263.7222,99.8441,260.2725,0.00019317,2.789e-05,0.0,0 STARLINK-4281,1 53017U 22076AH  24118.13884329  .00002789  00000-0  19317-3 0  9997,2 53017  53.2188 263.7222 0001544  99.8441 260.2725 15.08856505100567,6917.83,95.437,540.763,538.627,0.0
53017.0,STARLINK-4281,PAYLOAD,2024-04-27 12:52:16,15.08827193,0.0001448,53.2168,261.9377,106.6375,253.4776,-1.7544e-05,-5.67e-06,0.0,0 STARLINK-4281,1 53017U 22076AH  24118.53630593 -.00000567  00000-0 -17544-4 0  9998,2 53017  53.2168 261.9377 0001448 106.6375 253.4776 15.08827193100620,6917.92,95.438,540.786,538.783,0.0
53017.0,STARLINK-4281,PAYLOAD,2024-04-27 14:27:39,15.08829377,0.0001562,53.217,261.6403,105.3401,254.7764,1.8808e-06,-2.58e-06,0.0,0 STARLINK-4281,1 53017U 22076AH  24118.60254468 -.00000258  00000-0  18808-5 0  9990,2 53017  53.2170 261.6403 0001562 105.3401 254.7764 15.08829377100170,6917.913,95.438,540.858,538.697,0.0
53017.0,STARLINK-4281,PAYLOAD,2024-04-27 16:03:02,15.08831688,0.0001534,53.2171,261.3423,110.8708,249.2448,1.7092e-05,-1.6e-07,0.0,0 STARLINK-4281,1 53017U 22076AH  24118.66878286 -.00000016  00000-0  17092-4 0  9991,2 53017  53.2171 261.3423 0001534 110.8708 249.2448 15.08831688100187,6917.906,95.438,540.832,538.71,0.0
53017.0,STARLINK-4281,PAYLOAD,2024-04-28 12:43:03,15.08838071,0.0001569,53.2174,257.4759,111.9975,248.1184,1.347e-05,-7.4e-07,0.0,0 STARLINK-4281,1 53017U 22076AH  24119.52990089 -.00000074  00000-0  13470-4 0  9993,2 53017  53.2174 257.4759 0001569 111.9975 248.1184 15.08838071100777,6917.886,95.438,540.837,538.666,0.0
53017.0,STARLINK-4281,PAYLOAD,2024-04-28 14:18:26,15.08836975,0.0001531,53.2172,257.1787,111.7186,248.3969,8.8759e-06,-1.47e-06,0.0,0 STARLINK-4281,1 53017U 22076AH  24119.59614188 -.00000147  00000-0  88759-5 0  9997,2 53017  53.2172 257.1787 0001531 111.7186 248.3969 15.08836975100329,6917.89,95.438,540.814,538.696,0.0
53017.0,STARLINK-4281,PAYLOAD,2024-04-28 15:53:50,15.08834092,0.0001219,53.2171,256.884,92.0264,268.0868,2.378e-05,9.1e-07,0.0,0 STARLINK-4281,1 53017U 22076AH  24119.66238498  .00000091  00000-0  23780-4 0  9990,2 53017  53.2171 256.8840 0001219  92.0264 268.0868 15.08834092100331,6917.898,95.438,540.607,538.92,0.0
53017.0,STARLINK-4281,PAYLOAD,2024-04-29 12:33:50,15.0882924,0.0001262,53.2172,253.0185,93.4048,266.7089,0.00014893,2.082e-05,0.0,0 STARLINK-4281,1 53017U 22076AH  24120.52350663  .00002082  00000-0  14893-3 0  9992,2 53017  53.2172 253.0185 0001262  93.4048 266.7089 15.08829240100469,6917.913,95.438,540.651,538.905,0.0
53017.0,STARLINK-4281,PAYLOAD,2024-04-29 18:55:23,15.08836893,0.0001187,53.2167,251.8291,99.8667,260.2459,0.00011547,1.55e-05,0.0,0 STARLINK-4281,1 53017U 22076AH  24120.78846349  .00001550  00000-0  11547-3 0  9993,2 53017  53.2167 251.8291 0001187  99.8667 260.2459 15.08836893100967,6917.89,95.438,540.576,538.934,0.0
53017.0,STARLINK-4281,PAYLOAD,2024-04-30 01:16:55,15.08847218,0.0001045,53.2169,250.6362,95.8821,264.229,0.00021102,3.073e-05,0.0,0 STARLINK-4281,1 53017U 22076AH  24121.05341459  .00003073  00000-0  21102-3 0  9996,2 53017  53.2169 250.6362 0001045  95.8821 264.2290 15.08847218101002,6917.858,95.437,540.446,539.0,0.0
53017.0,STARLINK-4281,PAYLOAD,2024-04-30 12:24:38,15.0882738,0.0001083,53.2161,248.5562,90.8817,269.2299,3.484e-05,2.67e-06,0.0,0 STARLINK-4281,1 53017U 22076AH  24121.51711316  .00000267  00000-0  34840-4 0  9996,2 53017  53.2161 248.5562 0001083  90.8817 269.2299 15.08827380101073,6917.919,95.438,540.533,539.035,0.0
53017.0,STARLINK-4281,PAYLOAD,2024-04-30 14:00:01,15.08829635,0.0001148,53.217,248.26,95.3906,264.7218,4.4228e-05,4.16e-06,0.0,0 STARLINK-4281,1 53017U 22076AH  24121.58335196  .00000416  00000-0  44228-4 0  9998,2 53017  53.2170 248.2600 0001148  95.3906 264.7218 15.08829635100620,6917.912,95.438,540.571,538.983,0.0
53017.0,STARLINK-4281,PAYLOAD,2024-04-30 15:35:24,15.08831989,0.0001148,53.2167,247.963,96.3883,263.724,7.484e-05,9.03e-06,0.0,0 STARLINK-4281,1 53017U 22076AH  24121.64959017  .00000903  00000-0  74840-4 0  9993,2 53017  53.2167 247.9630 0001148  96.3883 263.7240 15.08831989100630,6917.905,95.438,540.564,538.976,0.0
53017.0,STARLINK-4281,PAYLOAD,2024-05-01 01:07:42,15.0884359,0.0001287,53.2181,246.1795,97.7795,262.3343,0.00014131,1.962e-05,0.0,0 STARLINK-4281,1 53017U 22076AH  24122.04702195  .00001962  00000-0  14131-3 0  9993,2 53017  53.2181 246.1795 0001287  97.7795 262.3343 15.08843590101158,6917.869,95.437,540.625,538.844,0.0
53017.0,STARLINK-4281,PAYLOAD,2024-05-01 09:04:38,15.08844124,0.0001408,53.2193,244.6934,105.3464,254.7684,0.00014255,1.982e-05,0.0,0 STARLINK-4281,1 53017U 22076AH  24122.37822168  .00001982  00000-0  14255-3 0  9991,2 53017  53.2193 244.6934 0001408 105.3464 254.7684 15.08844124100744,6917.868,95.437,540.707,538.759,0.0
53017.0,STARLINK-4281,PAYLOAD,2024-05-02 00:58:28,15.08860029,0.0001293,53.2174,241.715,78.0919,282.0218,0.00011827,1.596e-05,0.0,0 STARLINK-4281,1 53017U 22076AH  24123.04060612  .00001596  00000-0  11827-3 0  9997,2 53017  53.2174 241.7150 0001293  78.0919 282.0218 15.08860029101306,6917.819,95.436,540.579,538.79,0.0
53017.0,STARLINK-4281,PAYLOAD,2024-05-02 12:06:12,15.08821031,0.0001221,53.2165,239.638,101.7073,258.4056,-1.1749e-05,-4.75e-06,0.0,0 STARLINK-4281,1 53017U 22076AH  24123.50431528 -.00000475  00000-0 -11749-4 0  9997,2 53017  53.2165 239.6380 0001221 101.7073 258.4056 15.08821031101377,6917.938,95.439,540.648,538.959,0.0
53017.0,STARLINK-4281,PAYLOAD,2024-05-02 13:41:35,15.08825576,0.0001649,53.2179,239.34,93.8468,266.2713,-5.5605e-05,-1.173e-05,0.0,0 STARLINK-4281,1 53017U 22076AH  24123.57055405 -.00001173  00000-0 -55605-4 0  9995,2 53017  53.2179 239.3400 0001649  93.8468 266.2713 15.08825576100920,6917.924,95.438,540.93,538.649,0.0
53017.0,STARLINK-4281,PAYLOAD,2024-05-02 16:52:21,15.08835897,0.0001362,53.2178,238.7429,90.8394,269.2754,-1.6379e-05,-5.49e-06,0.0,0 STARLINK-4281,1 53017U 22076AH  24123.70302891 -.00000549  00000-0 -16379-4 0  9995,2 53017  53.2178 238.7429 0001362  90.8394 269.2754 15.08835897101409,6917.893,95.438,540.7,538.816,0.0
53017.0,STARLINK-4281,PAYLOAD,2024-05-03 00:49:16,15.08845456,0.0001413,53.2176,237.2576,92.3582,267.7572,5.4962e-05,5.87e-06,0.0,0 STARLINK-4281,1 53017U 22076AH  24124.03421893  .00000587  00000-0  54962-4 0  9996,2 53017  53.2176 237.2576 0001413  92.3582 267.7572 15.08845456101455,6917.864,95.437,540.706,538.751,0.0
53017.0,STARLINK-4281,PAYLOAD,2024-05-03 13:32:21,15.08850727,0.0001327,53.2159,234.8788,93.033,267.0814,0.0001398,1.938e-05,0.0,0 STARLINK-4281,1 53017U 22076AH  24124.56413208  .00001938  00000-0  13980-3 0  9990,2 53017  53.2159 234.8788 0001327  93.0330 267.0814 15.08850727101074,6917.848,95.437,540.631,538.795,0.0
53017.0,STARLINK-4281,PAYLOAD,2024-05-03 16:43:04,15.08896422,0.0001329,53.2151,234.2835,110.3816,249.7319,-0.0010878,-0.00017585,0.0,0 STARLINK-4281,1 53017U 22076AH  24124.69658182 -.00017585  00000-0 -10878-2 0  9995,2 53017  53.2151 234.2835 0001329 110.3816 249.7319 15.08896422101559,6917.708,95.434,540.492,538.654,0.0
53017.0,STARLINK-4281,PAYLOAD,2024-05-04 00:40:02,15.08856169,0.0001338,53.214,232.7965,85.7532,274.3613,0.00059339,9.173e-05,0.0,0 STARLINK-4281,1 53017U 22076AH  24125.02781000  .00009173  00000-0  59339-3 0  9997,2 53017  53.2140 232.7965 0001338  85.7532 274.3613 15.08856169101605,6917.831,95.437,540.622,538.77,0.0
53017.0,STARLINK-4281,PAYLOAD,2024-05-04 13:23:08,15.08830175,0.0001454,53.2148,230.4178,82.2261,277.8897,-1.606e-05,-5.43e-06,0.0,0 STARLINK-4281,1 53017U 22076AH  24125.55774202 -.00000543  00000-0 -16060-4 0  9990,2 53017  53.2148 230.4178 0001454  82.2261 277.8897 15.08830175101683,6917.91,95.438,540.781,538.77,0.0
53017.0,STARLINK-4281,PAYLOAD,2024-05-05 00:30:50,15.08840381,0.0001507,53.2156,228.3355,82.8427,277.2737,0.00011955,1.615e-05,0.0,0 STARLINK-4281,1 53017U 22076AH  24126.02141913  .00001615  00000-0  11955-3 0  9996,2 53017  53.2156 228.3355 0001507  82.8427 277.2737 15.08840381101759,6917.879,95.438,540.787,538.702,0.0
53017.0,STARLINK-4281,PAYLOAD,2024-05-05 13:13:56,15.08841939,0.0001548,53.2167,225.9566,80.9045,279.2122,0.00058124,8.975e-05,0.0,0 STARLINK-4281,1 53017U 22076AH  24126.55134264  .00008975  00000-0  58124-3 0  9990,2 53017  53.2167 225.9566 0001548  80.9045 279.2122 15.08841939101376,6917.874,95.437,540.81,538.669,0.0
53017.0,STARLINK-4281,PAYLOAD,2024-05-05 16:24:42,15.08845324,0.0001557,53.2167,225.3615,80.7117,279.4051,0.00075535,0.00011756,0.0,0 STARLINK-4281,1 53017U 22076AH  24126.68382288  .00011756  00000-0  75535-3 0  9991,2 53017  53.2167 225.3615 0001557  80.7117 279.4051 15.08845324101390,6917.864,95.437,540.806,538.652,0.0
53017.0,STARLINK-4281,PAYLOAD,2024-05-06 13:04:43,15.08844979,0.0001528,53.2169,221.4957,81.2681,278.8484,0.00034697,5.239e-05,0.0,0 STARLINK-4281,1 53017U 22076AH  24127.54494286  .00005239  00000-0  34697-3 0  9992,2 53017  53.2169 221.4957 0001528  81.2681 278.8484 15.08844979101981,6917.865,95.437,540.787,538.673,0.0
53017.0,STARLINK-4281,PAYLOAD,2024-05-07 12:55:30,15.08834275,0.0001295,53.2157,217.0343,81.3045,278.8094,3.9341e-06,-2.25e-06,0.0,0 STARLINK-4281,1 53017U 22076AH  24128.53854791 -.00000225  00000-0  39341-5 0  9997,2 53017  53.2157 217.0343 0001295  81.3045 278.8094 15.08834275102137,6917.898,95.438,540.659,538.867,0.0
